OBJECT_NAME,OBJECT_ID,EPOCH,MEAN_MOTION,ECCENTRICITY,INCLINATION,RA_OF_ASC_NODE,ARG_OF_PERICENTER,MEAN_ANOMALY,EPHEMERIS_TYPE,CLASSIFICATION_TYPE,NORAD_CAT_ID,ELEMENT_SET_NO,REV_AT_EPOCH,BSTAR,MEAN_MOTION_DOT,MEAN_MOTION_DDOT
TIANMU-1 20,2023-208B,2026-07-03T15:27:52.964928,15.33014335,.00056289,97.4464,301.6841,260.9265,99.1340,0,U,58661,999,13994,.27805844E-3,.8793E-4,0
TIANMU-1 21,2023-208C,2026-07-03T14:35:06.410112,15.35375479,.00058059,97.4524,304.3995,251.1822,108.8792,0,U,58662,999,14008,.36861248E-3,.12597E-3,0
TIANMU-1 22,2023-208D,2026-07-03T14:33:43.023744,15.31292342,.00021674,97.4519,300.9158,282.2466,77.8532,0,U,58663,999,13984,.34425269E-3,.1033E-3,0
TIANMU-1 15,2024-004A,2026-07-04T00:08:59.740800,15.26820077,.0005652,97.4669,11.1966,278.1840,81.8757,0,U,58700,999,13834,.27674E-3,.7223E-4,0
TIANMU-1 16,2024-004B,2026-07-03T16:03:04.358016,15.26917421,.00044286,97.4616,10.0822,301.2741,58.8064,0,U,58701,999,13829,.23672805E-3,.6184E-4,0
TIANMU-1 17,2024-004C,2026-07-03T14:07:46.558848,15.26920424,.00040628,97.4642,10.4932,309.7724,50.3157,0,U,58702,999,13827,.32294394E-3,.8466E-4,0
TIANMU-1 18,2024-004D,2026-07-03T16:41:10.329216,15.26834186,.00033834,97.4661,10.8611,283.0041,77.0820,0,U,58703,999,13829,.22321706E-3,.5812E-4,0
INSAT-3DS,2024-033A,2026-07-02T19:03:02.458080,1.00273790,.00013191,0.0723,96.7226,8.3588,183.5507,0,U,58990,999,4722,0,-.145E-5,0
METEOR-M2 4,2024-039A,2026-07-03T15:26:34.930176,14.22431271,.00080556,98.7019,143.7352,117.5333,242.6664,0,U,59051,999,12160,.32286865E-4,.28E-6,0
GOES 19,2024-119A,2026-07-02T13:37:28.098912,1.00271173,.0000538,0.0126,77.9489,80.1000,251.7332,0,U,60133,999,711,0,-.238E-5,0
MTG-S1,2025-143A,2026-07-02T17:24:08.004096,1.00272109,.00029574,0.5916,342.2144,262.9947,296.1264,0,U,64723,999,357,0,.3E-7,0
METOP-SGA1,2025-172A,2026-07-02T15:26:27.688992,14.19817616,.00077905,98.6636,243.0440,9.5325,350.5998,0,U,65159,999,4598,.51183666E-4,.65E-6,0
FENGYUN 3H,2025-219A,2026-07-02T19:48:41.129856,14.19923114,.00013871,98.6770,124.2907,65.8877,294.2444,0,U,65815,999,3960,.49611342E-4,.62E-6,0
