TIANMU-1 20             
1 58661U 23208B   26184.64436302  .00008793  00000+0  27806-3 0  9992
2 58661  97.4464 301.6841 0005628 260.9265  99.1340 15.33014335139946
TIANMU-1 21             
1 58662U 23208C   26184.60771308  .00012597  00000+0  36861-3 0  9995
2 58662  97.4524 304.3995 0005805 251.1822 108.8792 15.35375479140089
TIANMU-1 22             
1 58663U 23208D   26184.60674796  .00010330  00000+0  34425-3 0  9996
2 58663  97.4519 300.9158 0002167 282.2466  77.8532 15.31292342139846
TIANMU-1 15             
1 58700U 24004A   26185.00624700  .00007223  00000+0  27674-3 0  9993
2 58700  97.4669  11.1966 0005652 278.1840  81.8757 15.26820077138348
TIANMU-1 16             
1 58701U 24004B   26184.66880044  .00006184  00000+0  23673-3 0  9990
2 58701  97.4616  10.0822 0004428 301.2741  58.8064 15.26917421138297
TIANMU-1 17             
1 58702U 24004C   26184.58873332  .00008466  00000+0  32294-3 0  9998
2 58702  97.4642  10.4932 0004062 309.7724  50.3157 15.26920424138276
TIANMU-1 18             
1 58703U 24004D   26184.69525844  .00005812  00000+0  22322-3 0  9996
2 58703  97.4661  10.8611 0003383 283.0041  77.0820 15.26834186138291
INSAT-3DS               
1 58990U 24033A   26183.79377845 -.00000145  00000+0  00000+0 0  9992
2 58990   0.0723  96.7226 0001319   8.3588 183.5507  1.00273790 47226
METEOR-M2 4             
1 59051U 24039A   26184.64345984  .00000028  00000+0  32287-4 0  9997
2 59051  98.7019 143.7352 0008055 117.5333 242.6664 14.22431271121609
GOES 19                 
1 60133U 24119A   26183.56768633 -.00000238  00000+0  00000+0 0  9996
2 60133   0.0126  77.9489 0000538  80.1000 251.7332  1.00271173  7117
MTG-S1                  
1 64723U 25143A   26183.72509264  .00000003  00000+0  00000+0 0  9993
2 64723   0.5916 342.2144 0002957 262.9947 296.1264  1.00272109  3574
METOP-SGA1              
1 65159U 25172A   26183.64337603  .00000065  00000+0  51184-4 0  9998
2 65159  98.6636 243.0440 0007790   9.5325 350.5998 14.19817616 45989
FENGYUN 3H              
1 65815U 25219A   26183.82547604  .00000062  00000+0  49611-4 0  9992
2 65815  98.6770 124.2907 0001387  65.8877 294.2444 14.19923114 39601
